NORAD_CAT_ID,OBJECT_NAME,OBJECT_TYPE,EPOCH,MEAN_MOTION,ECCENTRICITY,INCLINATION,RA_OF_ASC_NODE,ARG_OF_PERICENTER,MEAN_ANOMALY,BSTAR,MEAN_MOTION_DOT,MEAN_MOTION_DDOT,TLE_LINE0,TLE_LINE1,TLE_LINE2,SEMIMAJOR_AXIS,PERIOD,APOGEE,PERIGEE,DECAYED
52622.0,STARLINK-4008,PAYLOAD,2022-09-07 14:00:01,15.08826667,0.0001536,53.2167,266.2475,64.077,175.2642,0.00048335,7.41e-05,0.0,0 STARLINK-4008,1 52622U 22052AA  22250.58334491  .00007410  00000-0  48335-3 0  9994,2 52622  53.2167 266.2475 0001536  64.0770 175.2642 15.08826667  1304,6917.920999999999,95.438,540.849,538.724,0.0
52622.0,STARLINK-4008,PAYLOAD,2022-09-07 20:00:01,15.08817492,0.0001419,53.2168,265.1239,71.5852,86.5096,0.0012833,0.00020182,0.0,0 STARLINK-4008,1 52622U 22052AA  22250.83335648  .00020182  00000-0  12833-2 0  9991,2 52622  53.2168 265.1239 0001419  71.5852  86.5096 15.08817492 18092,6917.949000000001,95.439,540.7959999999998,538.8330000000002,0.0
52622.0,STARLINK-4008,PAYLOAD,2022-09-07 22:00:00,15.08807868,0.000143,53.2167,264.7495,73.3194,177.6103,0.002851,0.00045338,0.0,0 STARLINK-4008,1 52622U 22052AA  22250.91667824  .00045338  00000-0  28510-2 0  9993,2 52622  53.2167 264.7495 0001430  73.3194 177.6103 15.08807868  1305,6917.979,95.44,540.8330000000002,538.854,0.0
52622.0,STARLINK-4008,PAYLOAD,2022-09-08 14:00:01,15.08845079,0.0001517,53.2161,261.7584,65.3091,208.7892,-0.00027036,-4.589e-05,0.0,0 STARLINK-4008,1 52622U 22052AA  22251.58334491 -.00004589  00000-0 -27036-3 0  9996,2 52622  53.2161 261.7584 0001517  65.3091 208.7892 15.08845079  1305,6917.865,95.437,540.779,538.68,0.0
52622.0,STARLINK-4008,PAYLOAD,2022-09-08 20:00:01,15.08829171,0.0001422,53.2162,260.6347,73.0928,119.7134,0.0018222,0.00028823,0.0,0 STARLINK-4008,1 52622U 22052AA  22251.83334491  .00028823  00000-0  18222-2 0  9995,2 52622  53.2162 260.6347 0001422  73.0928 119.7134 15.08829171 18247,6917.913000000001,95.438,540.762,538.795,0.0
52622.0,STARLINK-4008,PAYLOAD,2022-09-08 22:00:00,15.08822715,0.0001443,53.216,260.2604,75.2335,210.4739,0.0030521999999999,0.000486,0.0,0 STARLINK-4008,1 52622U 22052AA  22251.91667824  .00048600  00000-0  30522-2 0  9995,2 52622  53.2160 260.2604 0001443  75.2335 210.4739 15.08822715  1302,6917.933000000001,95.439,540.7959999999998,538.8,0.0
52622.0,STARLINK-4008,PAYLOAD,2022-09-09 14:00:01,15.08864145,0.0001530999999999,53.2155,257.2689,66.8795,242.0303,-0.0007367999999999,-0.00012003,0.0,0 STARLINK-4008,1 52622U 22052AA  22252.58334491 -.00012003  00000-0 -73680-3 0  9993,2 52622  53.2155 257.2689 0001531  66.8795 242.0303 15.08864145  1300,6917.807,95.436,540.731,538.612,0.0
52622.0,STARLINK-4008,PAYLOAD,2022-09-09 22:00:00,15.0884963,0.0001531999999999,53.2155,255.7709,76.80199999999998,243.7323,6.8296e-05,7.99e-06,0.0,0 STARLINK-4008,1 52622U 22052AA  22252.91667824  .00000799  00000-0  68296-4 0  9994,2 52622  53.2155 255.7709 0001532  76.8020 243.7323 15.08849630  1301,6917.851,95.437,540.776,538.656,0.0
52622.0,STARLINK-4008,PAYLOAD,2022-09-10 04:00:00,15.08854471,0.0001652,53.2157,254.6497,74.4571,164.7835,-0.0021195999999999,-0.00033877,0.0,0 STARLINK-4008,1 52622U 22052AA  22253.16667824 -.00033877  00000-0 -21196-2 0  9993,2 52622  53.2157 254.6497 0001652  74.4571 164.7835 15.08854471 18456,6917.8359999999975,95.437,540.844,538.558,0.0
52622.0,STARLINK-4008,PAYLOAD,2022-09-10 14:00:01,15.08852066,0.0001665,53.2153,252.7793,68.8847,274.8489,-0.001152,-0.00018581,0.0,0 STARLINK-4008,1 52622U 22052AA  22253.58334491 -.00018581  00000-0 -11520-2 0  9995,2 52622  53.2153 252.7793 0001665  68.8847 274.8489 15.08852066  1309,6917.844,95.437,540.86,538.557,0.0
52622.0,STARLINK-4008,PAYLOAD,2022-09-10 20:00:01,15.08830372,0.0001591,53.2155,251.6556,75.8538,186.5884,0.001163,0.00018265,0.0,0 STARLINK-4008,1 52622U 22052AA  22253.83334491  .00018265  00000-0  11630-2 0  9992,2 52622  53.2155 251.6556 0001591  75.8538 186.5884 15.08830372 18558,6917.91,95.438,540.875,538.674,0.0
52622.0,STARLINK-4008,PAYLOAD,2022-09-10 22:00:00,15.08860433,0.0001549,53.2161,251.2806,82.7838,272.6264,-0.0045203,-0.00071554,0.0,0 STARLINK-4008,1 52622U 22052AA  22253.91667824 -.00071554  00000-0 -45203-2 0  9995,2 52622  53.2161 251.2806 0001549  82.7838 272.6264 15.08860433  1307,6917.818,95.436,540.755,538.611,0.0
52622.0,STARLINK-4008,PAYLOAD,2022-09-11 14:00:01,15.08848474,0.000151,53.2156,248.2895,71.0947,307.5027,-0.0027708,-0.00044126,0.0,0 STARLINK-4008,1 52622U 22052AA  22254.58334491 -.00044126  00000-0 -27708-2 0  9995,2 52622  53.2156 248.2895 0001510  71.0947 307.5027 15.08848474  1301,6917.854,95.437,540.764,538.675,0.0
52622.0,STARLINK-4008,PAYLOAD,2022-09-11 20:00:01,15.08799887,0.0001445,53.2158,247.166,78.3105,218.9881,0.0031829999999999,0.00050678,0.0,0 STARLINK-4008,1 52622U 22052AA  22254.83334491  .00050678  00000-0  31830-2 0  9991,2 52622  53.2158 247.1660 0001445  78.3105 218.9881 15.08799887 18702,6918.003000000002,95.44,540.868,538.868,0.0
52622.0,STARLINK-4008,PAYLOAD,2022-09-11 22:00:00,15.0880673,0.0001481,53.2158,246.7917,79.807,310.3814,0.0030568,0.00048653,0.0,0 STARLINK-4008,1 52622U 22052AA  22254.91667824  .00048653  00000-0  30568-2 0  9996,2 52622  53.2158 246.7917 0001481  79.8070 310.3814 15.08806730  1306,6917.982,95.44,540.872,538.823,0.0
52622.0,STARLINK-4008,PAYLOAD,2022-09-12 12:00:00,15.08844161,0.0001499,53.2161,244.1748,68.5315,251.9175,-0.0003753999999999,-6.258e-05,0.0,0 STARLINK-4008,1 52622U 22052AA  22255.50001157 -.00006258  00000-0 -37540-3 0  9998,2 52622  53.2161 244.1748 0001499  68.5315 251.9175 15.08844161 18803,6917.868,95.437,540.77,538.696,0.0
52622.0,STARLINK-4008,PAYLOAD,2022-09-12 14:00:01,15.08866862,0.0001491,53.2163,243.8001,69.7215,343.621,-0.0038491,-0.00061072,0.0,0 STARLINK-4008,1 52622U 22052AA  22255.58334491 -.00061072  00000-0 -38491-2 0  9996,2 52622  53.2163 243.8001 0001491  69.7215 343.6210 15.08866862  1305,6917.7980000000025,95.436,540.695,538.632,0.0
52622.0,STARLINK-4008,PAYLOAD,2022-09-12 22:00:00,15.08808446,0.0001414,53.2167,242.3023,78.4805,346.47,0.0028278,0.00044965,0.0,0 STARLINK-4008,1 52622U 22052AA  22255.91667824  .00044965  00000-0  28278-2 0  9994,2 52622  53.2167 242.3023 0001414  78.4805 346.4700 15.08808446  1303,6917.977,95.44,540.82,538.864,0.0
52622.0,STARLINK-4008,PAYLOAD,2022-09-13 14:00:01,15.08868445,0.0001539,53.217,239.3108,70.7544,17.3555,-0.0044028999999999,-0.00069736,0.0,0 STARLINK-4008,1 52622U 22052AA  22256.58334491 -.00069736  00000-0 -44029-2 0  9996,2 52622  53.2170 239.3108 0001539  70.7544  17.3555 15.08868445  1307,6917.793000000002,95.436,540.7230000000002,538.594,0.0
52622.0,STARLINK-4008,PAYLOAD,2022-09-13 16:00:00,15.08856354,0.0001513,53.2173,238.9361,73.9406,107.074,-0.0037461,-0.00059442,0.0,0 STARLINK-4008,1 52622U 22052AA  22256.66667824 -.00059442  00000-0 -37461-2 0  9999,2 52622  53.2173 238.9361 0001513  73.9406 107.0740 15.08856354 18970,6917.83,95.437,540.742,538.649,0.0
52622.0,STARLINK-4008,PAYLOAD,2022-09-13 22:00:00,15.08812464,0.0001594,53.2174,237.8133,80.0653,19.6459,0.0025022,0.00039729,0.0,0 STARLINK-4008,1 52622U 22052AA  22256.91667824  .00039729  00000-0  25022-2 0  9991,2 52622  53.2174 237.8133 0001594  80.0653  19.6459 15.08812464  1306,6917.965,95.439,540.932,538.727,0.0
52622.0,STARLINK-4008,PAYLOAD,2022-09-14 04:00:00,15.08844308,0.0001598,53.2175,236.6923,75.5093,302.8819,-0.0012472,-0.00020085,0.0,0 STARLINK-4008,1 52622U 22052AA  22257.16667824 -.00020085  00000-0 -12472-2 0  9991,2 52622  53.2175 236.6923 0001598  75.5093 302.8819 15.08844308 19052,6917.8669999999975,95.437,540.8380000000002,538.627,0.0
52622.0,STARLINK-4008,PAYLOAD,2022-09-14 14:00:01,15.08769321,0.0001412,53.2172,234.8216,79.556,43.3324,0.0057381,0.0009205,0.0,0 STARLINK-4008,1 52622U 22052AA  22257.58334491  .00092050  00000-0  57381-2 0  9995,2 52622  53.2172 234.8216 0001412  79.5560  43.3324 15.08769321  1300,6918.096,95.442,540.938,538.985,0.0
52622.0,STARLINK-4008,PAYLOAD,2022-09-14 20:00:01,15.088313,0.0001482,53.2175,233.6985,80.3693,321.198,0.00067762,0.0001051,0.0,0 STARLINK-4008,1 52622U 22052AA  22257.83334491  .00010510  00000-0  67762-3 0  9999,2 52622  53.2175 233.6985 0001482  80.3693 321.1980 15.08831300 19151,6917.906999999997,95.438,540.797,538.747,0.0
52622.0,STARLINK-4008,PAYLOAD,2022-09-14 22:00:00,15.0884563,0.0001526,53.2178,233.3245,81.5989,52.8609,-0.0010589,-0.00017103,0.0,0 STARLINK-4008,1 52622U 22052AA  22257.91667824 -.00017103  00000-0 -10589-2 0  9998,2 52622  53.2178 233.3245 0001526  81.5989  52.8609 15.08845630  1305,6917.863,95.437,540.784,538.673,0.0
52622.0,STARLINK-4008,PAYLOAD,2022-09-15 14:00:01,15.08853845,0.0001440999999999,53.2173,230.3328,75.5122,82.1491,-0.0012613,-0.00020313,0.0,0 STARLINK-4008,1 52622U 22052AA  22258.58334491 -.00020313  00000-0 -12613-2 0  9990,2 52622  53.2173 230.3328 0001441  75.5122  82.1491 15.08853845  1309,6917.8380000000025,95.437,540.7,538.706,0.0
52622.0,STARLINK-4008,PAYLOAD,2022-09-15 16:00:00,15.08839929,0.0001384,53.2176,229.9583,77.9826,172.5793,6.1141e-05,6.85e-06,0.0,0 STARLINK-4008,1 52622U 22052AA  22258.66667824  .00000685  00000-0  61141-4 0  9998,2 52622  53.2176 229.9583 0001384  77.9826 172.5793 15.08839929  1308,6917.880999999999,95.438,540.703,538.788,0.0
52622.0,STARLINK-4008,PAYLOAD,2022-09-16 02:01:21,15.08836671,0.0001496999999999,53.2179,228.0853,73.9617,286.154,0.00014098,1.956e-05,0.0,0 STARLINK-4008,1 52622U 22052AA  22259.08427658  .00001956  00000-0  14098-3 0  9994,2 52622  53.2179 228.0853 0001497  73.9617 286.1540 15.08836671 19346,6917.891,95.438,540.7909999999998,538.72,0.0
52622.0,STARLINK-4008,PAYLOAD,2022-09-16 05:12:07,15.08842207,0.0001584,53.2179,227.4904,80.89399999999998,279.2232,7.926e-05,9.74e-06,0.0,0 STARLINK-4008,1 52622U 22052AA  22259.21675498  .00000974  00000-0  79260-4 0  9998,2 52622  53.2179 227.4904 0001584  80.8940 279.2232 15.08842207 18981,6917.874,95.437,540.8340000000002,538.643,0.0
